{
  "norad_id": 55914,
  "name": "STARLINK-5856",
  "history": [
    {
      "epoch": "2026-03-28T20:25:47.772768",
      "apogee_km": 573.8586131863058,
      "perigee_km": 570.2460437771479,
      "latitude_deg": -9.345224154188777,
      "longitude_deg": -146.88025248004124,
      "semi_major_axis_km": 6950.189328481727,
      "eccentricity": 0.00025989,
      "inclination_deg": 69.9991,
      "raan_deg": 256.2918,
      "arg_perigee_deg": 269.5323,
      "mean_anomaly_deg": 90.5538,
      "mean_motion_rev_day": 14.98331152
    }
  ]
}